OBJECT_NAME,OBJECT_ID,EPOCH,MEAN_MOTION,ECCENTRICITY,INCLINATION,RA_OF_ASC_NODE,ARG_OF_PERICENTER,MEAN_ANOMALY,EPHEMERIS_TYPE,CLASSIFICATION_TYPE,NORAD_CAT_ID,ELEMENT_SET_NO,REV_AT_EPOCH,BSTAR,MEAN_MOTION_DOT,MEAN_MOTION_DDOT
STARLINK-34147,2025-099P,2026-06-28T22:42:00.882720,15.27599302,.00018934,42.9997,267.7168,271.9641,88.0994,0,U,63965,999,6435,.49191286E-3,.13307E-3,0
STARLINK-33960,2025-099Q,2026-06-28T22:36:27.929952,15.27586152,.00010641,42.9998,267.6863,273.5699,86.5031,0,U,63966,999,6435,.85721678E-3,.23406E-3,0
STARLINK-34153,2025-099R,2026-06-28T22:27:12.688128,15.27581150,.00011141,42.9979,267.6360,284.4302,75.6425,0,U,63967,999,6435,.73455232E-3,.20007E-3,0
STARLINK-33963,2025-099S,2026-06-28T22:32:45.587328,15.27585503,.00017537,42.9983,267.6656,267.8762,92.1889,0,U,63968,999,6435,.17270783E-3,.4494E-4,0
STARLINK-34112,2025-099T,2026-06-28T22:21:37.747296,15.27601005,.000348,42.9990,267.6065,268.4991,91.5462,0,U,63969,999,6435,.18396105E-3,.4806E-4,0
STARLINK-34084,2025-099U,2026-06-28T22:16:06.695328,15.27579210,.00012536,43.0002,267.5762,277.6408,82.4301,0,U,63970,999,6435,.73615367E-3,.2005E-3,0
STARLINK-34138,2025-099V,2026-06-28T22:59:21.904224,15.27589507,.00015609,43.0056,264.3352,265.5461,94.5213,0,U,63971,999,6439,.50216274E-3,.13586E-3,0
STARLINK-34115,2025-099W,2026-06-28T16:27:56.270016,15.27600108,.00012345,43.0016,265.7431,274.7602,85.3109,0,U,63972,999,6435,.54495858E-3,.14773E-3,0
STARLINK-34028,2025-099X,2026-06-28T22:00:01.999584,15.26773266,.00015852,43.0009,264.8210,278.9370,111.4729,0,U,63973,999,586,-.10912759E-2,-.29445E-3,0
STARLINK-33942,2025-099Y,2026-06-28T17:04:56.611776,15.27632572,.0001518,42.9990,265.9394,283.9590,76.1093,0,U,63974,999,6435,.84874794E-3,.23205E-3,0
STARLINK-34139,2025-099Z,2026-06-28T13:51:05.090400,15.27587140,.00015786,43.0007,266.6445,284.2838,75.7838,0,U,63975,999,6424,.33544914E-3,.8982E-4,0
STARLINK-34090,2025-099AA,2026-06-28T23:10:27.862464,15.27589095,.00015109,43.0015,264.3986,286.8923,73.1763,0,U,63976,999,6430,.37333057E-3,.10028E-3,0
STARLINK-34105,2025-099AB,2026-06-28T23:06:45.900000,15.27586659,.00015847,43.0026,264.3771,282.9429,77.1246,0,U,63977,999,6430,.58383487E-3,.15842E-3,0
STARLINK-33642,2025-099AC,2026-06-28T22:55:39.698976,15.27591898,.00015844,43.0034,264.3161,276.9433,83.1239,0,U,63978,999,6430,.343805E-3,.9214E-4,0
STARLINK-34045,2025-099AD,2026-06-28T22:50:06.804960,15.27588661,.00019615,43.0022,264.2865,266.9298,93.1329,0,U,63979,999,6430,.51424664E-3,.13919E-3,0
STARLINK-33871,2025-101A,2026-06-28T19:04:52.132512,15.27587597,.00014029,43.0021,90.8211,258.0253,102.0442,0,U,63994,999,6397,.48783997E-3,.13189E-3,0
STARLINK-34154,2025-101B,2026-06-28T19:58:19.304832,15.27590313,.00018762,42.9985,90.2384,270.1939,89.8698,0,U,63995,999,6405,.61553715E-3,.1672E-3,0
STARLINK-34158,2025-101C,2026-06-28T19:47:13.578144,15.27593983,.00014722,42.9985,90.2165,232.0315,128.0404,0,U,63996,999,6405,.59685679E-3,.16205E-3,0
STARLINK-34165,2025-101D,2026-06-28T19:30:33.981984,15.27593339,.00012779,43.0016,90.0917,253.2625,106.8087,0,U,63997,999,6405,.59054553E-3,.1603E-3,0
STARLINK-34150,2025-101E,2026-06-28T18:53:46.077504,15.27565932,.00013095,43.0004,90.7661,270.3966,89.6736,0,U,63998,999,6404,.71866875E-3,.19558E-3,0
STARLINK-34169,2025-101F,2026-06-28T19:45:22.014144,15.27593027,.00012719,42.9973,90.1661,222.6943,137.3810,0,U,63999,999,6405,.70062575E-3,.19075E-3,0
STARLINK-34152,2025-101G,2026-06-28T18:20:27.858048,15.27585819,.0001818,43.0014,90.5871,270.8859,89.1784,0,U,64000,999,6404,.63485581E-3,.17252E-3,0
STARLINK-33927,2025-101H,2026-06-28T19:17:49.684128,15.27583052,.00012582,43.0013,90.8894,267.8284,92.2424,0,U,64001,999,6404,.48112863E-3,.13002E-3,0
STARLINK-33898,2025-101J,2026-06-28T19:06:42.635520,15.27570724,.00015586,43.0030,90.8345,264.9927,95.0746,0,U,64002,999,6404,.28329705E-4,.517E-5,0
STARLINK-33928,2025-101K,2026-06-28T19:23:09.888576,15.27592483,.00011154,43.0001,90.0500,251.2493,108.8237,0,U,64003,999,6405,.4373774E-3,.11797E-3,0
STARLINK-33758,2025-101L,2026-06-28T01:25:06.587328,15.27610361,.00010253,42.9993,94.7518,288.2438,71.8302,0,U,64004,999,6393,.75215535E-3,.20512E-3,0
STARLINK-33936,2025-101M,2026-06-28T18:16:45.444576,15.27567811,.00014059,42.9995,90.5637,247.0782,112.9922,0,U,64005,999,6404,.791803E-3,.21582E-3,0
STARLINK-33931,2025-101N,2026-06-28T17:50:51.455904,15.27596421,.00013959,43.0033,90.4292,264.5244,95.5449,0,U,64006,999,6406,.66040139E-3,.17964E-3,0
STARLINK-33759,2025-101P,2026-06-28T19:39:48.943008,15.27594411,.00012004,43.0001,90.1344,227.2674,132.8077,0,U,64007,999,6405,.63115473E-3,.17154E-3,0
STARLINK-34163,2025-101Q,2026-06-28T18:48:12.972672,15.27581667,.00009738,42.9982,90.7328,255.6635,104.4108,0,U,64008,999,6404,.7675483E-3,.2092E-3,0
STARLINK-34077,2025-101R,2026-06-28T19:37:57.835200,15.27597035,.00013466,42.9991,90.1223,214.5348,145.5417,0,U,64009,999,6405,.71430207E-3,.19456E-3,0
STARLINK-34113,2025-101S,2026-06-28T18:59:19.078656,15.27586219,.00013482,43.0009,90.7899,263.4942,96.5756,0,U,64010,999,6404,.29998937E-3,.8003E-4,0
STARLINK-34193,2025-101T,2026-06-28T18:57:28.080576,15.27589674,.00008115,42.9988,90.7783,262.7165,97.3594,0,U,64011,999,6404,.39200395E-3,.10544E-3,0
STARLINK-34078,2025-101U,2026-06-28T19:34:15.220416,15.27582436,.00010416,42.9991,90.1007,209.0822,150.9972,0,U,64012,999,6405,.9317835E-3,.25469E-3,0
STARLINK-34182,2025-101V,2026-06-28T19:01:52.013568,15.27593092,.00011482,42.9993,87.3364,252.1656,107.9070,0,U,64013,999,6408,.46277052E-3,.12499E-3,0
STARLINK-34192,2025-101W,2026-06-28T19:10:24.967776,15.27582244,.00021325,43.0034,90.8446,251.2447,108.8174,0,U,64014,999,6404,.49960963E-3,.13512E-3,0
STARLINK-34093,2025-101X,2026-06-28T19:43:30.934848,15.27602259,.00014698,43.0008,90.1505,255.6632,104.4057,0,U,64015,999,6405,.85739271E-3,.23423E-3,0
STARLINK-34016,2025-101Y,2026-06-28T22:44:25.539648,15.27595460,.0001836,43.0025,89.3737,274.7621,85.3021,0,U,64016,999,6407,.59330667E-3,.16108E-3,0
STARLINK-34161,2025-101Z,2026-06-28T19:49:03.994752,15.27582879,.00013758,43.0003,90.1781,257.0764,102.9934,0,U,64017,999,6405,.53134309E-3,.14389E-3,0
STARLINK-34162,2025-101AA,2026-06-28T18:33:23.040576,15.27644614,.0001383,43.0008,90.6445,271.1245,88.9449,0,U,64018,999,6404,.12462068E-2,.34258E-3,0
STARLINK-34155,2025-101AB,2026-06-28T18:44:30.754464,15.27585076,.00008175,42.9997,90.7055,219.4741,140.6052,0,U,64019,999,6404,.49506136E-3,.13388E-3,0
STARLINK-34141,2025-101AC,2026-06-28T18:38:57.294528,15.27553690,.00013671,43.0013,90.6736,259.3537,100.7160,0,U,64020,999,6404,.53064961E-3,.14357E-3,0
STARLINK-34062,2025-101AD,2026-06-28T19:41:40.074144,15.27589482,.00012579,42.9996,90.1399,253.8568,106.2146,0,U,64021,999,6405,.57340723E-3,.15555E-3,0
STARLINK-34051,2025-102A,2026-06-28T10:54:12.364992,14.98336760,.00041595,69.9997,195.1785,265.8165,94.2519,0,U,64022,999,6254,.18119472E-3,.207E-4,0
STARLINK-34087,2025-102B,2026-06-28T17:42:30.812832,14.98378157,.00039127,69.9993,194.5605,259.7307,100.3411,0,U,64023,999,6259,.13582397E-2,.16172E-3,0
STARLINK-34184,2025-102C,2026-06-28T10:29:57.297408,14.98329666,.00035668,70.0001,195.1147,273.7185,86.3566,0,U,64024,999,6243,.41545477E-3,.4868E-4,0
STARLINK-34088,2025-102D,2026-06-28T17:54:48.229056,14.98333516,.0003943,69.9996,194.5862,265.0011,95.0698,0,U,64025,999,6259,.11556191E-3,.1286E-4,0
STARLINK-33992,2025-102E,2026-06-28T18:06:35.388864,14.98334476,.00038591,69.9993,194.6193,267.9966,92.0751,0,U,64026,999,6267,.1843976E-3,.2108E-4,0
STARLINK-33967,2025-102F,2026-06-28T23:43:02.459424,14.98336905,.00038306,69.9998,193.8264,265.4596,94.6125,0,U,64027,999,6256,.95667918E-4,.1049E-4,0
STARLINK-33953,2025-102G,2026-06-28T18:12:33.657696,14.98334204,.00040804,69.9998,194.2274,265.9645,94.1047,0,U,64028,999,6269,.16789677E-3,.1911E-4,0
STARLINK-33790,2025-102H,2026-06-29T00:01:18.593760,14.98337249,.00041351,69.9992,193.8685,266.1084,93.9603,0,U,64029,999,6267,.89592562E-4,.976E-5,0
STARLINK-34030,2025-102J,2026-06-28T17:54:33.969600,14.98334024,.00041408,69.9995,194.5905,261.4583,98.6107,0,U,64030,999,6259,.13415928E-3,.1508E-4,0
STARLINK-34024,2025-102K,2026-06-28T11:05:59.346816,14.98332616,.00038316,69.9994,195.2042,263.7604,96.3118,0,U,64031,999,6248,.13375298E-3,.1503E-4,0
STARLINK-34019,2025-102L,2026-06-28T18:24:34.498080,14.98328881,.00040039,69.9995,194.2564,267.4205,92.6495,0,U,64032,999,6260,-.31080968E-4,-.464E-5,0
STARLINK-33860,2025-102M,2026-06-28T10:41:56.884992,14.98337376,.00034999,70.0001,195.1434,269.2431,90.8327,0,U,64033,999,6255,.19364849E-3,.2219E-4,0
STARLINK-33946,2025-102N,2026-06-28T23:37:16.239072,14.98338574,.0003236,69.9996,193.8155,269.3090,90.7698,0,U,64034,999,6267,.12060419E-3,.1347E-4,0
STARLINK-34046,2025-102P,2026-06-28T18:00:48.298464,14.98334489,.00040713,69.9997,194.4842,267.9304,92.1389,0,U,64035,999,6236,.1518032E-3,.1719E-4,0
STARLINK-34085,2025-102Q,2026-06-28T17:42:47.088864,14.98333954,.00036706,69.9994,194.5546,265.3366,94.7374,0,U,64036,999,6258,.14918209E-3,.1688E-4,0
STARLINK-34008,2025-102R,2026-06-28T23:49:17.484672,14.98338863,.00039763,69.9996,193.8367,271.2768,88.7935,0,U,64037,999,6263,.48416596E-3,.569E-4,0
STARLINK-34079,2025-102S,2026-06-28T18:18:34.338816,14.98334148,.00041926,70.0000,194.2410,265.8137,94.2543,0,U,64038,999,6269,.17676483E-3,.2017E-4,0
STARLINK-34089,2025-102T,2026-06-28T18:06:49.588704,14.98334532,.00040705,69.9996,194.6136,266.6453,93.4241,0,U,64039,999,6258,.16889866E-3,.1923E-4,0
STARLINK-34117,2025-102U,2026-06-28T11:24:15.264288,14.98322087,.00036117,69.9993,195.2424,269.7173,90.3572,0,U,64040,999,6248,.29709186E-3,.3453E-4,0
STARLINK-34111,2025-102V,2026-06-28T23:55:19.387488,14.98342379,.00037118,69.9991,193.8516,267.6384,92.4350,0,U,64041,999,6240,.33439499E-3,.3901E-4,0
STARLINK-34049,2025-102W,2026-06-28T18:00:34.659360,14.98335008,.00042088,69.9997,194.6026,265.2653,94.8025,0,U,64042,999,6258,.17267804E-3,.1968E-4,0
